STARLINK-37471          
1 68802U 26089A   26117.60299488 -.00931780  29221-3 -17004-2 0  9995
2 68802  97.2854 322.7563 0000899  95.8430 264.2952 16.01417468   721
