{
  "norad_id": 68802,
  "name": "STARLINK-37471",
  "history": [
    {
      "epoch": "2026-04-27T14:28:18.757632Z",
      "apogee_km": 271.09023452727797,
      "perigee_km": 269.89481093908944,
      "latitude_deg": 3.3844480788610886e-05,
      "longitude_deg": -109.91230198322557,
      "height_km": 273.75539618703624,
      "semi_major_axis_km": 6648.629522733183,
      "eccentricity": 8.99e-05,
      "inclination_deg": 97.2854,
      "raan_deg": 322.7563,
      "arg_perigee_deg": 95.843,
      "mean_anomaly_deg": 264.2952,
      "mean_motion_rev_day": 16.01417468
    }
  ]
}